{
    "links": {
        "self": "http://www.neowsapp.com/rest/v1/neo/3789375?api_key=iIulBulltgU6a56xZRHN4H3l9WmuAYTsLGpBGhQ2"
    },
    "id": "3789375",
    "neo_reference_id": "3789375",
    "name": "(2017 VG13)",
    "designation": "2017 VG13",
    "nasa_jpl_url": "http://ssd.jpl.nasa.gov/sbdb.cgi?sstr=3789375",
    "absolute_magnitude_h": 26.7,
    "estimated_diameter": {
        "kilometers": {
            "estimated_diameter_min": 0.0121494041,
            "estimated_diameter_max": 0.0271668934
        },
        "meters": {
            "estimated_diameter_min": 12.14940408,
            "estimated_diameter_max": 27.1668934089
        },
        "miles": {
            "estimated_diameter_min": 0.0075492874,
            "estimated_diameter_max": 0.0168807197
        },
        "feet": {
            "estimated_diameter_min": 39.8602508817,
            "estimated_diameter_max": 89.1302305717
        }
    },
    "is_potentially_hazardous_asteroid": false,
    "close_approach_data": [
        {
            "close_approach_date": "2017-11-01",
            "close_approach_date_full": "2017-Nov-01 17:02",
            "epoch_date_close_approach": 1509555720000,
            "relative_velocity": {
                "kilometers_per_second": "4.8855966353",
                "kilometers_per_hour": "17588.1478869556",
                "miles_per_hour": "10928.5911134253"
            },
            "miss_distance": {
                "astronomical": "0.0438947225",
                "lunar": "17.0750470525",
                "kilometers": "6566556.990241075",
                "miles": "4080269.309133835"
            },
            "orbiting_body": "Earth"
        }
    ],
    "orbital_data": {
        "orbit_id": "4",
        "orbit_determination_date": "2017-12-30 06:30:38",
        "first_observation_date": "2017-11-13",
        "last_observation_date": "2017-11-30",
        "data_arc_in_days": 17,
        "observations_used": 22,
        "orbit_uncertainty": "7",
        "minimum_orbit_intersection": ".0442624",
        "jupiter_tisserand_invariant": "4.403",
        "epoch_osculation": "2459000.5",
        "eccentricity": ".3271785711693725",
        "semi_major_axis": "1.539696374429724",
        "inclination": "5.462269848165485",
        "ascending_node_longitude": "221.6682535082707",
        "orbital_period": "697.8322841684294",
        "perihelion_distance": "1.035940714609144",
        "perihelion_argument": "175.7468162660773",
        "aphelion_distance": "2.043452034250304",
        "perihelion_time": "2458755.941552256862",
        "mean_anomaly": "126.1636114936177",
        "mean_motion": ".5158832690422074",
        "equinox": "J2000",
        "orbit_class": {
            "orbit_class_type": "AMO",
            "orbit_class_description": "Near-Earth asteroid orbits similar to that of 1221 Amor",
            "orbit_class_range": "1.017 AU < q (perihelion) < 1.3 AU"
        }
    },
    "is_sentry_object": false
}